start=new Date('2022-05-30T00:00:00.000Z').valueOf();
sats=[{"ELEMENT_SET_NO":"999","COUNTRY_CODE":"US","PERIOD":"95.591","OBJECT_TYPE":"PAYLOAD","MEAN_MOTION_DDOT":"0.0000000000000","NORAD_CAT_ID":"46063","REF_FRAME":"TEME","SITE":"AFETR","GP_ID":"204852459","FILE":"3470904","BSTAR":"0.00012314000000","EPOCH":"2022-05-29T11:02:09.099456","TLE_LINE2":"2 46063  53.0548 192.7211 0001438  62.2799 297.8336 15.06411352100995","CENTER_NAME":"EARTH","SEMIMAJOR_AXIS":"6925.314","INCLINATION":"53.0548","OBJECT_NAME":"STARLINK-1577","MEAN_ANOMALY":"297.8336","APOAPSIS":"548.175","RA_OF_ASC_NODE":"192.7211","LAUNCH_DATE":"2020-08-07","TIME_SYSTEM":"UTC","PERIAPSIS":"546.183","OBJECT_ID":"2020-055AN","MEAN_ELEMENT_THEORY":"SGP4","RCS_SIZE":"LARGE","ECCENTRICITY":"0.00014380","MEAN_MOTION_DOT":"0.00001554","DECAY_DATE":null,"CLASSIFICATION_TYPE":"U","MEAN_MOTION":"15.06411352","REV_AT_EPOCH":"10099","TLE_LINE1":"1 46063U 20055AN  22149.45982754  .00001554  00000-0  12314-3 0  9992","EPHEMERIS_TYPE":"0","ARG_OF_PERICENTER":"62.2799"},{"OBJECT_NAME":"STARLINK-1583","MEAN_ANOMALY":"308.9303","APOAPSIS":"548.398","RA_OF_ASC_NODE":"191.0763","CENTER_NAME":"EARTH","SEMIMAJOR_AXIS":"6925.367","INCLINATION":"53.0532","BSTAR":"-0.00002039600000","EPOCH":"2022-05-29T19:47:37.277664","TLE_LINE2":"2 46064  53.0532 191.0763 0001685  51.1836 308.9303 15.06394137101053","SITE":"AFETR","FILE":"3471362","GP_ID":"204888074","OBJECT_TYPE":"PAYLOAD","COUNTRY_CODE":"US","PERIOD":"95.593","MEAN_MOTION_DDOT":"0.0000000000000","REF_FRAME":"TEME","NORAD_CAT_ID":"46064","ELEMENT_SET_NO":"999","EPHEMERIS_TYPE":"0","ARG_OF_PERICENTER":"51.1836","TLE_LINE1":"1 46064U 20055AP  22149.82473701 -.00000585  00000-0 -20396-4 0  9996","REV_AT_EPOCH":"10105","CLASSIFICATION_TYPE":"U","MEAN_MOTION":"15.06394137","MEAN_MOTION_DOT":"-0.00000585","DECAY_DATE":null,"OBJECT_ID":"2020-055AP","MEAN_ELEMENT_THEORY":"SGP4","ECCENTRICITY":"0.00016850","RCS_SIZE":"LARGE","TIME_SYSTEM":"UTC","PERIAPSIS":"546.065","LAUNCH_DATE":"2020-08-07"},{"EPHEMERIS_TYPE":"0","ARG_OF_PERICENTER":"54.4505","TLE_LINE1":"1 46065U 20055AQ  22149.75192242 -.00000174  00000-0  72518-5 0  9994","REV_AT_EPOCH":"10130","MEAN_MOTION":"15.06391139","CLASSIFICATION_TYPE":"U","DECAY_DATE":null,"MEAN_MOTION_DOT":"-0.00000174","MEAN_ELEMENT_THEORY":"SGP4","ECCENTRICITY":"0.00016090","RCS_SIZE":"LARGE","OBJECT_ID":"2020-055AQ","TIME_SYSTEM":"UTC","PERIAPSIS":"546.126","LAUNCH_DATE":"2020-08-07","RA_OF_ASC_NODE":"171.3974","OBJECT_NAME":"STARLINK-1515","MEAN_ANOMALY":"305.6634","APOAPSIS":"548.355","INCLINATION":"53.0541","CENTER_NAME":"EARTH","SEMIMAJOR_AXIS":"6925.376","TLE_LINE2":"2 46065  53.0541 171.3974 0001609  54.4505 305.6634 15.06391139101302","EPOCH":"2022-05-29T18:02:46.097088","BSTAR":"0.00000725180000","SITE":"AFETR","GP_ID":"204888321","FILE":"3471362","PERIOD":"95.593","COUNTRY_CODE":"US","OBJECT_TYPE":"PAYLOAD","MEAN_MOTION_DDOT":"0.0000000000000","REF_FRAME":"TEME","NORAD_CAT_ID":"46065","ELEMENT_SET_NO":"999"},{"OBJECT_NAME":"STARLINK-1525","MEAN_ANOMALY":"318.9886","APOAPSIS":"548.496","RA_OF_ASC_NODE":"171.3875","SEMIMAJOR_AXIS":"6925.372","CENTER_NAME":"EARTH","INCLINATION":"53.0547","SITE":"AFETR","FILE":"3471362","GP_ID":"204887074","BSTAR":"-0.00009995100000","EPOCH":"2022-05-29T18:09:26.067744","TLE_LINE2":"2 46066  53.0547 171.3875 0001818  41.1239 318.9886 15.06392332101311","ELEMENT_SET_NO":"999","COUNTRY_CODE":"US","MEAN_MOTION_DDOT":"0.0000000000000","OBJECT_TYPE":"PAYLOAD","PERIOD":"95.593","REF_FRAME":"TEME","NORAD_CAT_ID":"46066","TLE_LINE1":"1 46066U 20055AR  22149.75655171 -.00001770  00000-0 -99951-4 0  9993","REV_AT_EPOCH":"10131","ARG_OF_PERICENTER":"41.1239","EPHEMERIS_TYPE":"0","CLASSIFICATION_TYPE":"U","MEAN_MOTION":"15.06392332","OBJECT_ID":"2020-055AR","MEAN_ELEMENT_THEORY":"SGP4","RCS_SIZE":"LARGE","ECCENTRICITY":"0.00018180","MEAN_MOTION_DOT":"-0.00001770","DECAY_DATE":null,"LAUNCH_DATE":"2020-08-07","TIME_SYSTEM":"UTC","PERIAPSIS":"545.978"},{"TLE_LINE1":"1 46067U 20055AS  22149.75929670 -.00000304  00000-0 -15379-5 0  9997","REV_AT_EPOCH":"10132","EPHEMERIS_TYPE":"0","ARG_OF_PERICENTER":"60.1029","MEAN_MOTION":"15.06385219","CLASSIFICATION_TYPE":"U","MEAN_ELEMENT_THEORY":"SGP4","ECCENTRICITY":"0.00016830","RCS_SIZE":"LARGE","OBJECT_ID":"2020-055AS","DECAY_DATE":null,"MEAN_MOTION_DOT":"-0.00000304","LAUNCH_DATE":"2020-08-07","TIME_SYSTEM":"UTC","PERIAPSIS":"546.093","RA_OF_ASC_NODE":"171.3595","OBJECT_NAME":"STARLINK-1529","MEAN_ANOMALY":"300.0127","APOAPSIS":"548.424","INCLINATION":"53.0545","SEMIMAJOR_AXIS":"6925.394","CENTER_NAME":"EARTH","SITE":"AFETR","FILE":"3471362","GP_ID":"204887324","TLE_LINE2":"2 46067  53.0545 171.3595 0001683  60.1029 300.0127 15.06385219101324","BSTAR":"-0.00000153790000","EPOCH":"2022-05-29T18:13:23.234880","ELEMENT_SET_NO":"999","OBJECT_TYPE":"PAYLOAD","COUNTRY_CODE":"US","PERIOD":"95.593","MEAN_MOTION_DDOT":"0.0000000000000","NORAD_CAT_ID":"46067","REF_FRAME":"TEME"},{"OBJECT_NAME":"STARLINK-1532","MEAN_ANOMALY":"312.7732","APOAPSIS":"548.600","RA_OF_ASC_NODE":"171.3116","SEMIMAJOR_AXIS":"6925.386","CENTER_NAME":"EARTH","INCLINATION":"53.0545","BSTAR":"0.00001736500000","EPOCH":"2022-05-29T18:30:40.574880","TLE_LINE2":"2 46068  53.0545 171.3116 0001948  47.3421 312.7732 15.06387853101329","SITE":"AFETR","FILE":"3471362","GP_ID":"204888575","PERIOD":"95.593","COUNTRY_CODE":"US","OBJECT_TYPE":"PAYLOAD","MEAN_MOTION_DDOT":"0.0000000000000","REF_FRAME":"TEME","NORAD_CAT_ID":"46068","ELEMENT_SET_NO":"999","ARG_OF_PERICENTER":"47.3421","EPHEMERIS_TYPE":"0","TLE_LINE1":"1 46068U 20055AT  22149.77130295 -.00000023  00000-0  17365-4 0  9990","REV_AT_EPOCH":"10132","CLASSIFICATION_TYPE":"U","MEAN_MOTION":"15.06387853","MEAN_MOTION_DOT":"-0.00000023","DECAY_DATE":null,"OBJECT_ID":"2020-055AT","MEAN_ELEMENT_THEORY":"SGP4","RCS_SIZE":"LARGE","ECCENTRICITY":"0.00019480","TIME_SYSTEM":"UTC","PERIAPSIS":"545.902","LAUNCH_DATE":"2020-08-07"},{"PERIAPSIS":"546.014","TIME_SYSTEM":"UTC","LAUNCH_DATE":"2020-08-07","MEAN_MOTION_DOT":"0.00000204","DECAY_DATE":null,"OBJECT_ID":"2020-055AU","RCS_SIZE":"LARGE","ECCENTRICITY":"0.00017390","MEAN_ELEMENT_THEORY":"SGP4","CLASSIFICATION_TYPE":"U","MEAN_MOTION":"15.06398566","ARG_OF_PERICENTER":"56.7539","EPHEMERIS_TYPE":"0","TLE_LINE1":"1 46069U 20055AU  22149.78603061  .00000204  00000-0  32633-4 0  9993","REV_AT_EPOCH":"10133","REF_FRAME":"TEME","NORAD_CAT_ID":"46069","PERIOD":"95.592","COUNTRY_CODE":"US","OBJECT_TYPE":"PAYLOAD","MEAN_MOTION_DDOT":"0.0000000000000","ELEMENT_SET_NO":"999","EPOCH":"2022-05-29T18:51:53.044704","BSTAR":"0.00003263300000","TLE_LINE2":"2 46069  53.0549 171.2443 0001739  56.7539 303.3617 15.06398566101330","GP_ID":"204888822","FILE":"3471362","SITE":"AFETR","CENTER_NAME":"EARTH","SEMIMAJOR_AXIS":"6925.353","INCLINATION":"53.0549","APOAPSIS":"548.422","MEAN_ANOMALY":"303.3617","OBJECT_NAME":"STARLINK-1533","RA_OF_ASC_NODE":"171.2443"},{"MEAN_MOTION":"15.06395722","CLASSIFICATION_TYPE":"U","ARG_OF_PERICENTER":"64.0850","EPHEMERIS_TYPE":"0","REV_AT_EPOCH":"10126","TLE_LINE1":"1 46070U 20055AV  22149.33634894  .00000317  00000-0  40153-4 0  9995","TIME_SYSTEM":"UTC","PERIAPSIS":"546.108","LAUNCH_DATE":"2020-08-07","DECAY_DATE":null,"MEAN_MOTION_DOT":"0.00000317","MEAN_ELEMENT_THEORY":"SGP4","ECCENTRICITY":"0.00016150","RCS_SIZE":"LARGE","OBJECT_ID":"2020-055AV","INCLINATION":"53.0548","CENTER_NAME":"EARTH","SEMIMAJOR_AXIS":"6925.362","RA_OF_ASC_NODE":"173.2669","MEAN_ANOMALY":"296.0305","OBJECT_NAME":"STARLINK-1536","APOAPSIS":"548.345","MEAN_MOTION_DDOT":"0.0000000000000","COUNTRY_CODE":"US","OBJECT_TYPE":"PAYLOAD","PERIOD":"95.592","NORAD_CAT_ID":"46070","REF_FRAME":"TEME","ELEMENT_SET_NO":"999","TLE_LINE2":"2 46070  53.0548 173.2669 0001615  64.0850 296.0305 15.06395722101269","EPOCH":"2022-05-29T08:04:20.548416","BSTAR":"0.00004015300000","SITE":"AFETR","FILE":"3470904","GP_ID":"204852712"},{"BSTAR":"0.00001102800000","EPOCH":"2022-05-29T18:04:06.808512","TLE_LINE2":"2 46071  53.0549 171.3818 0001908  50.9810 309.1349 15.06404540101321","GP_ID":"204887825","FILE":"3471362","SITE":"AFETR","NORAD_CAT_ID":"46071","REF_FRAME":"TEME","COUNTRY_CODE":"US","OBJECT_TYPE":"PAYLOAD","PERIOD":"95.592","MEAN_MOTION_DDOT":"0.0000000000000","ELEMENT_SET_NO":"999","APOAPSIS":"548.521","MEAN_ANOMALY":"309.1349","OBJECT_NAME":"STARLINK-1538","RA_OF_ASC_NODE":"171.3818","SEMIMAJOR_AXIS":"6925.335","CENTER_NAME":"EARTH","INCLINATION":"53.0549","MEAN_MOTION_DOT":"-0.00000117","DECAY_DATE":null,"OBJECT_ID":"2020-055AW","RCS_SIZE":"LARGE","ECCENTRICITY":"0.00019080","MEAN_ELEMENT_THEORY":"SGP4","PERIAPSIS":"545.878","TIME_SYSTEM":"UTC","LAUNCH_DATE":"2020-08-07","ARG_OF_PERICENTER":"50.9810","EPHEMERIS_TYPE":"0","REV_AT_EPOCH":"10132","TLE_LINE1":"1 46071U 20055AW  22149.75285658 -.00000117  00000-0  11028-4 0  9990","CLASSIFICATION_TYPE":"U","MEAN_MOTION":"15.06404540"},{"SITE":"AFETR","GP_ID":"204888075","FILE":"3471362","EPOCH":"2022-05-29T18:39:55.583424","BSTAR":"0.00016449000000","TLE_LINE2":"2 46072  53.0541 171.2941 0002111  41.5298 318.5851 15.06394137101314","ELEMENT_SET_NO":"999","COUNTRY_CODE":"US","PERIOD":"95.593","OBJECT_TYPE":"PAYLOAD","MEAN_MOTION_DDOT":"0.0000000000000","NORAD_CAT_ID":"46072","REF_FRAME":"TEME","MEAN_ANOMALY":"318.5851","OBJECT_NAME":"STARLINK-1539","APOAPSIS":"548.693","RA_OF_ASC_NODE":"171.2941","SEMIMAJOR_AXIS":"6925.367","CENTER_NAME":"EARTH","INCLINATION":"53.0541","OBJECT_ID":"2020-055AX","MEAN_ELEMENT_THEORY":"SGP4","ECCENTRICITY":"0.00021110","RCS_SIZE":"LARGE","MEAN_MOTION_DOT":"0.00002169","DECAY_DATE":null,"LAUNCH_DATE":"2020-08-07","TIME_SYSTEM":"UTC","PERIAPSIS":"545.770","TLE_LINE1":"1 46072U 20055AX  22149.77772666  .00002169  00000-0  16449-3 0  9992","REV_AT_EPOCH":"10131","EPHEMERIS_TYPE":"0","ARG_OF_PERICENTER":"41.5298","CLASSIFICATION_TYPE":"U","MEAN_MOTION":"15.06394137"}];
